{"type": "FeatureCollection", "features": [ {"type": "Feature", "properties": {"norad_id": 66478, "name": "STARLINK-35283", "group": "last-30-days", "lat": -5.858041163298558, "lon": -51.18901318382218, "alt_km": 394.70357434985726, "timestamp": "2025-12-03T22:42:31.475752+00:00", "meta": {"OBJECT_NAME": "STARLINK-35283", "OBJECT_ID": "2025-262Y", "EPOCH": "2025-12-03T12:00:02.998944", "MEAN_MOTION": 15.59716108, "ECCENTRICITY": 0.0001327, "INCLINATION": 42.9994, "RA_OF_ASC_NODE": 125.1317, "ARG_OF_PERICENTER": 261.7375, "MEAN_ANOMALY": 300.2658, "EPHEMERIS_TYPE": 0, "CLASSIFICATION_TYPE": "U", "NORAD_CAT_ID": 66478, "ELEMENT_SET_NO": 999, "REV_AT_EPOCH": 415, "BSTAR": -0.029248, "MEAN_MOTION_DOT": -0.02136638, "MEAN_MOTION_DDOT": 0}, "tle": {"line1": "1 66478U 25262Y   25337.50003471 -.02136638  00000+0 -29248-1 0  9994", "line2": "2 66478  42.9994 125.1317 0001327 261.7375 300.2658 15.59716108  4151"}}, "geometry": {"type": "Point", "coordinates": [-51.18901318382218, -5.858041163298558]}}, {"type": "Feature", "properties": {"norad_id": 66479, "name": "STARLINK-35581", "group": "last-30-days", "lat": -3.255193238749888, "lon": -54.001302813294735, "alt_km": 394.78383790433327, "timestamp": "2025-12-03T22:42:31.475761+00:00", "meta": {"OBJECT_NAME": "STARLINK-35581", "OBJECT_ID": "2025-262Z", "EPOCH": "2025-12-03T12:00:02.998944", "MEAN_MOTION": 15.59719551, "ECCENTRICITY": 0.0001122, "INCLINATION": 42.9999, "RA_OF_ASC_NODE": 125.1416, "ARG_OF_PERICENTER": 274.2548, "MEAN_ANOMALY": 283.9169, "EPHEMERIS_TYPE": 0, "CLASSIFICATION_TYPE": "U", "NORAD_CAT_ID": 66479, "ELEMENT_SET_NO": 999, "REV_AT_EPOCH": 415, "BSTAR": -0.029395, "MEAN_MOTION_DOT": -0.02146259, "MEAN_MOTION_DDOT": 0}, "tle": {"line1": "1 66479U 25262Z   25337.50003471 -.02146259  00000+0 -29395-1 0  9998", "line2": "2 66479  42.9999 125.1416 0001122 274.2548 283.9169 15.59719551  4150"}}, "geometry": {"type": "Point", "coordinates": [-54.001302813294735, -3.255193238749888]}}, {"type": "Feature", "properties": {"norad_id": 66480, "name": "STARLINK-35670", "group": "last-30-days", "lat": -7.157130125057683, "lon": -49.77110263446463, "alt_km": 394.9606202715131, "timestamp": "2025-12-03T22:42:31.475770+00:00", "meta": {"OBJECT_NAME": "STARLINK-35670", "OBJECT_ID": "2025-262AA", "EPOCH": "2025-12-03T12:00:02.998944", "MEAN_MOTION": 15.59718636, "ECCENTRICITY": 0.0001105, "INCLINATION": 42.9993, "RA_OF_ASC_NODE": 125.1265, "ARG_OF_PERICENTER": 265.8325, "MEAN_ANOMALY": 298.0907, "EPHEMERIS_TYPE": 0, "CLASSIFICATION_TYPE": "U", "NORAD_CAT_ID": 66480, "ELEMENT_SET_NO": 999, "REV_AT_EPOCH": 415, "BSTAR": -0.029352, "MEAN_MOTION_DOT": -0.02143381, "MEAN_MOTION_DDOT": 0}, "tle": {"line1": "1 66480U 25262AA  25337.50003471 -.02143381  00000+0 -29352-1 0  9996", "line2": "2 66480  42.9993 125.1265 0001105 265.8325 298.0907 15.59718636  4158"}}, "geometry": {"type": "Point", "coordinates": [-49.77110263446463, -7.157130125057683]}}, {"type": "Feature", "properties": {"norad_id": 66481, "name": "STARLINK-35698", "group": "last-30-days", "lat": -8.448120118437325, "lon": -48.34917535308118, "alt_km": 395.2333943561307, "timestamp": "2025-12-03T22:42:31.475780+00:00", "meta": {"OBJECT_NAME": "STARLINK-35698", "OBJECT_ID": "2025-262AB", "EPOCH": "2025-12-03T12:00:02.998944", "MEAN_MOTION": 15.59722001, "ECCENTRICITY": 0.0001157, "INCLINATION": 42.9995, "RA_OF_ASC_NODE": 125.1214, "ARG_OF_PERICENTER": 273.0381, "MEAN_ANOMALY": 292.8004, "EPHEMERIS_TYPE": 0, "CLASSIFICATION_TYPE": "U", "NORAD_CAT_ID": 66481, "ELEMENT_SET_NO": 999, "REV_AT_EPOCH": 415, "BSTAR": -0.029435, "MEAN_MOTION_DOT": -0.02149027, "MEAN_MOTION_DDOT": 0}, "tle": {"line1": "1 66481U 25262AB  25337.50003471 -.02149027  00000+0 -29435-1 0  9992", "line2": "2 66481  42.9995 125.1214 0001157 273.0381 292.8004 15.59722001  4156"}}, "geometry": {"type": "Point", "coordinates": [-48.34917535308118, -8.448120118437325]}}, {"type": "Feature", "properties": {"norad_id": 66482, "name": "STARLINK-35648", "group": "last-30-days", "lat": -9.738094981734923, "lon": -46.91256629879458, "alt_km": 395.18761331176756, "timestamp": "2025-12-03T22:42:31.475789+00:00", "meta": {"OBJECT_NAME": "STARLINK-35648", "OBJECT_ID": "2025-262AC", "EPOCH": "2025-12-03T12:00:02.998944", "MEAN_MOTION": 15.59722557, "ECCENTRICITY": 0.000105, "INCLINATION": 42.9996, "RA_OF_ASC_NODE": 125.1167, "ARG_OF_PERICENTER": 264.9654, "MEAN_ANOMALY": 302.7925, "EPHEMERIS_TYPE": 0, "CLASSIFICATION_TYPE": "U", "NORAD_CAT_ID": 66482, "ELEMENT_SET_NO": 999, "REV_AT_EPOCH": 399, "BSTAR": -0.029451, "MEAN_MOTION_DOT": -0.02150042, "MEAN_MOTION_DDOT": 0}, "tle": {"line1": "1 66482U 25262AC  25337.50003471 -.02150042  00000+0 -29451-1 0  9990", "line2": "2 66482  42.9996 125.1167 0001050 264.9654 302.7925 15.59722557  3999"}}, "geometry": {"type": "Point", "coordinates": [-46.91256629879458, -9.738094981734923]}}, {"type": "Feature", "properties": {"norad_id": 66483, "name": "STARLINK-35654", "group": "last-30-days", "lat": -11.016857418879066, "lon": -45.47162062019568, "alt_km": 395.22057818427584, "timestamp": "2025-12-03T22:42:31.475800+00:00", "meta": {"OBJECT_NAME": "STARLINK-35654", "OBJECT_ID": "2025-262AD", "EPOCH": "2025-12-03T12:00:02.998944", "MEAN_MOTION": 15.59719711, "ECCENTRICITY": 0.0001282, "INCLINATION": 42.9999, "RA_OF_ASC_NODE": 125.1111, "ARG_OF_PERICENTER": 264.1349, "MEAN_ANOMALY": 305.54, "EPHEMERIS_TYPE": 0, "CLASSIFICATION_TYPE": "U", "NORAD_CAT_ID": 66483, "ELEMENT_SET_NO": 999, "REV_AT_EPOCH": 415, "BSTAR": -0.02939, "MEAN_MOTION_DOT": -0.02146082, "MEAN_MOTION_DDOT": 0}, "tle": {"line1": "1 66483U 25262AD  25337.50003471 -.02146082  00000+0 -29390-1 0  9992", "line2": "2 66483  42.9999 125.1111 0001282 264.1349 305.5400 15.59719711  4158"}}, "geometry": {"type": "Point", "coordinates": [-45.47162062019568, -11.016857418879066]}}, {"type": "Feature", "properties": {"norad_id": 66484, "name": "STARLINK-35371", "group": "last-30-days", "lat": -12.290533996307225, "lon": -44.01349253610269, "alt_km": 395.43270196447156, "timestamp": "2025-12-03T22:42:31.475809+00:00", "meta": {"OBJECT_NAME": "STARLINK-35371", "OBJECT_ID": "2025-262AE", "EPOCH": "2025-12-03T12:00:02.998944", "MEAN_MOTION": 15.59717837, "ECCENTRICITY": 0.0001166, "INCLINATION": 42.9997, "RA_OF_ASC_NODE": 125.1078, "ARG_OF_PERICENTER": 268.637, "MEAN_ANOMALY": 302.9514, "EPHEMERIS_TYPE": 0, "CLASSIFICATION_TYPE": "U", "NORAD_CAT_ID": 66484, "ELEMENT_SET_NO": 999, "REV_AT_EPOCH": 415, "BSTAR": -0.029301, "MEAN_MOTION_DOT": -0.02140072, "MEAN_MOTION_DDOT": 0}, "tle": {"line1": "1 66484U 25262AE  25337.50003471 -.02140072  00000+0 -29301-1 0  9998", "line2": "2 66484  42.9997 125.1078 0001166 268.6370 302.9514 15.59717837  4157"}}, "geometry": {"type": "Point", "coordinates": [-44.01349253610269, -12.290533996307225]}}, {"type": "Feature", "properties": {"norad_id": 66485, "name": "STARLINK-34774", "group": "last-30-days", "lat": -31.761278516532418, "lon": 135.3217185540607, "alt_km": 362.1821338141217, "timestamp": "2025-12-03T22:42:31.475818+00:00", "meta": {"OBJECT_NAME": "STARLINK-34774", "OBJECT_ID": "2025-263A", "EPOCH": "2025-12-03T12:00:02.998944", "MEAN_MOTION": 15.71357176, "ECCENTRICITY": 0.0001707, "INCLINATION": 42.999, "RA_OF_ASC_NODE": 179.6469, "ARG_OF_PERICENTER": 262.9455, "MEAN_ANOMALY": 41.1078, "EPHEMERIS_TYPE": 0, "CLASSIFICATION_TYPE": "U", "NORAD_CAT_ID": 66485, "ELEMENT_SET_NO": 999, "REV_AT_EPOCH": 415, "BSTAR": -0.016678, "MEAN_MOTION_DOT": -0.01937785, "MEAN_MOTION_DDOT": 0}, "tle": {"line1": "1 66485U 25263A   25337.50003471 -.01937785  00000+0 -16678-1 0  9997", "line2": "2 66485  42.9990 179.6469 0001707 262.9455  41.1078 15.71357176  4158"}}, "geometry": {"type": "Point", "coordinates": [135.3217185540607, -31.761278516532418]}}, {"type": "Feature", "properties": {"norad_id": 66486, "name": "STARLINK-34844", "group": "last-30-days", "lat": -30.76989628761278, "lon": 137.23570652424002, "alt_km": 362.2714467369133, "timestamp": "2025-12-03T22:42:31.475828+00:00", "meta": {"OBJECT_NAME": "STARLINK-34844", "OBJECT_ID": "2025-263B", "EPOCH": "2025-12-03T12:00:02.998944", "MEAN_MOTION": 15.71353228, "ECCENTRICITY": 0.0001691, "INCLINATION": 42.9989, "RA_OF_ASC_NODE": 179.6408, "ARG_OF_PERICENTER": 257.8512, "MEAN_ANOMALY": 48.122, "EPHEMERIS_TYPE": 0, "CLASSIFICATION_TYPE": "U", "NORAD_CAT_ID": 66486, "ELEMENT_SET_NO": 999, "REV_AT_EPOCH": 410, "BSTAR": -0.016636, "MEAN_MOTION_DOT": -0.01933181, "MEAN_MOTION_DDOT": 0}, "tle": {"line1": "1 66486U 25263B   25337.50003471 -.01933181  00000+0 -16636-1 0  9998", "line2": "2 66486  42.9989 179.6408 0001691 257.8512  48.1220 15.71353228  4104"}}, "geometry": {"type": "Point", "coordinates": [137.23570652424002, -30.76989628761278]}}, {"type": "Feature", "properties": {"norad_id": 66487, "name": "STARLINK-34733", "group": "last-30-days", "lat": -29.75135162523099, "lon": 139.11214533116424, "alt_km": 361.93045757318396, "timestamp": "2025-12-03T22:42:31.475837+00:00", "meta": {"OBJECT_NAME": "STARLINK-34733", "OBJECT_ID": "2025-263C", "EPOCH": "2025-12-03T08:00:01.999872", "MEAN_MOTION": 15.72094082, "ECCENTRICITY": 0.00016626, "INCLINATION": 42.9994, "RA_OF_ASC_NODE": 180.6432, "ARG_OF_PERICENTER": 275.4139, "MEAN_ANOMALY": 168.2238, "EPHEMERIS_TYPE": 0, "CLASSIFICATION_TYPE": "U", "NORAD_CAT_ID": 66487, "ELEMENT_SET_NO": 999, "REV_AT_EPOCH": 412, "BSTAR": -0.016625488, "MEAN_MOTION_DOT": -0.01987024, "MEAN_MOTION_DDOT": 0}, "tle": {"line1": "1 66487U 25263C   25337.33335648 -.01987024  00000+0 -16625-1 0  9997", "line2": "2 66487  42.9994 180.6432 0001662 275.4139 168.2238 15.72094082  4125"}}, "geometry": {"type": "Point", "coordinates": [139.11214533116424, -29.75135162523099]}}]}